0 PSLV DEB
1 27146U 01049CS  13281.89864228  .00002255  00000-0  36712-3 0  9688
2 27146 097.9410 236.8830 0059368 103.0933 323.3886 14.70818297631226
0 PSLV DEB
1 27146U 01049CS  13283.12252553  .00002104  00000-0  34313-3 0  9697
2 27146 097.9412 238.0758 0059343 099.2670 323.6972 14.70823816631400
0 PSLV DEB
1 27146U 01049CS  13285.84313269  .00002367  00000-0  38487-3 0  9710
2 27146 097.9406 240.7275 0059374 090.6224 329.2006 14.70832380631801
0 PSLV DEB
1 27146U 01049CS  13286.86229229  .00002689  00000-0  43613-3 0  9720
2 27146 097.9409 241.7207 0059380 087.4650 325.5594 14.70836500631959
0 PSLV DEB
1 27146U 01049CS  13287.94853532  .00004150  00000-0  66846-3 0  9739
2 27146 097.9412 242.7794 0059328 084.1270 317.1068 14.70844548632112
0 PSLV DEB
1 27146U 01049CS  13289.46489596  .00003514  00000-0  56723-3 0  9740
2 27146 097.9418 244.2573 0059285 079.4214 066.1869 14.70854209632336
0 PSLV DEB
1 27146U 01049CS  13290.48406009  .00003581  00000-0  57771-3 0  9751
2 27146 097.9423 245.2505 0059246 076.2648 062.6468 14.70860683632486
0 PSLV DEB
1 27146U 01049CS  13291.82869575  .00003351  00000-0  54112-3 0  9763
2 27146 097.9429 246.5612 0059199 072.0574 342.5562 14.70868913632685
0 PSLV DEB
1 27146U 01049CS  13293.12281490  .00004059  00000-0  65368-3 0  9774
2 27146 097.9433 247.8228 0059129 068.0169 355.0157 14.70874595632878
0 PSLV DEB
1 27146U 01049CS  13294.14376311  .00004290  00000-0  69029-3 0  9780
2 27146 097.9433 248.8183 0059124 064.8526 001.0097 14.70882123633020
0 PSLV DEB
1 27146U 01049CS  13295.45183091  .00004524  00000-0  72740-3 0  9791
2 27146 097.9434 250.0938 0059021 060.7745 087.3830 14.70892285633211
